ONEWEB-0094             
1 45450U 20020AC  26158.33122242  .00000056  00000+0  11219-3 0  9990
2 45450  87.9151   7.8091 0001645  82.8409 277.2909 13.17650734305015
ONEWEB-0087             
1 45451U 20020AD  26158.34156653 -.00000574  00000+0 -16557-2 0  9991
2 45451  87.8914  23.0008 0001818  74.7691 285.3638 13.11416379301299
ONEWEB-0082             
1 45452U 20020AE  26157.65151795 -.00000543  00000+0 -15689-2 0  9998
2 45452  87.8909  23.1560 0002040  72.5608 287.5743 13.11416869301295
ONEWEB-0050             
1 45453U 20020AF  26158.20527465  .00002854  00000+0  29147-3 0  9992
2 45453  88.9301 234.5652 0004631  49.4146 310.7485 14.90339991338898
ONEWEB-0034             
1 45454U 20020AG  26158.37526573  .00000460  00000+0  12710-2 0  9998
2 45454  87.8904  23.0211 0001825  83.3434 276.7901 13.10935949301303
ONEWEB-0060             
1 45455U 20020AH  26158.33068440 -.00000283  00000+0 -83443-3 0  9996
2 45455  87.8894  23.0283 0001765  50.7346 309.3938 13.11415396301251
ONEWEB-0086             
1 45456U 20020AJ  26158.38570005  .00000426  00000+0  11657-2 0  9991
2 45456  87.8907  23.0121 0001380  69.3355 290.7921 13.11454173301326
ONEWEB-0088             
1 45457U 20020AK  26158.36375767  .00000058  00000+0  12873-3 0  9991
2 45457  87.8915  22.9884 0002229  84.0935 276.0447 13.11419497301253
ONEWEB-0102             
1 47258U 20100A   26158.29937176  .00000405  00000+0  10911-2 0  9997
2 47258  87.8943 352.6428 0001468  91.0961 269.0335 13.12443901263436
ONEWEB-0109             
1 47259U 20100B   26158.23160529  .00000244  00000+0  64185-3 0  9996
2 47259  87.8952 352.6387 0001726  93.5565 266.5761 13.12442742263252
ONEWEB-0110             
1 47260U 20100C   26158.25870345 -.00000414  00000+0 -11873-2 0  9990
2 47260  87.8950 352.6176 0001592  83.8661 276.2648 13.12443607263420
ONEWEB-0111             
1 47261U 20100D   26157.83177206  .00000398  00000+0  10713-2 0  9991
2 47261  87.8949 352.7213 0001806  85.4980 274.6355 13.12445042263200
ONEWEB-0114             
1 47262U 20100E   26158.24345860 -.00000153  00000+0 -46066-3 0  9993
2 47262  87.8953 352.6365 0001924  96.1041 264.0307 13.12442210263216
ONEWEB-0117             
1 47263U 20100F   26158.23499360  .00000122  00000+0  30278-3 0  9990
2 47263  87.8951 352.6297 0001770  89.4464 270.6867 13.12441567263221
ONEWEB-0118             
1 47264U 20100G   26158.26886715 -.00000309  00000+0 -89348-3 0  9999
2 47264  87.8947 352.6254 0002081  94.5622 265.5744 13.12443247263425
ONEWEB-0119             
1 47265U 20100H   26158.29429404  .00000413  00000+0  11113-2 0  9999
2 47265  87.8938 352.6380 0001803  89.6375 270.4960 13.12442923263400
