[{"OBJECT_NAME":"ONEWEB-0094","OBJECT_ID":"2020-020AC","EPOCH":"2026-06-07T07:56:57.617088","MEAN_MOTION":13.17650734,"ECCENTRICITY":0.0001645,"INCLINATION":87.9151,"RA_OF_ASC_NODE":7.8091,"ARG_OF_PERICENTER":82.8409,"MEAN_ANOMALY":277.2909,"EPHEMERIS_TYPE":0,"CLASSIFICATION_TYPE":"U","NORAD_CAT_ID":45450,"ELEMENT_SET_NO":999,"REV_AT_EPOCH":30501,"BSTAR":0.00011219,"MEAN_MOTION_DOT":5.6e-07,"MEAN_MOTION_DDOT":0.0},{"OBJECT_NAME":"ONEWEB-0087","OBJECT_ID":"2020-020AD","EPOCH":"2026-06-07T08:11:51.348192","MEAN_MOTION":13.11416379,"ECCENTRICITY":0.0001818,"INCLINATION":87.8914,"RA_OF_ASC_NODE":23.0008,"ARG_OF_PERICENTER":74.7691,"MEAN_ANOMALY":285.3638,"EPHEMERIS_TYPE":0,"CLASSIFICATION_TYPE":"U","NORAD_CAT_ID":45451,"ELEMENT_SET_NO":999,"REV_AT_EPOCH":30129,"BSTAR":-0.0016557,"MEAN_MOTION_DOT":-5.74e-06,"MEAN_MOTION_DDOT":0.0},{"OBJECT_NAME":"ONEWEB-0082","OBJECT_ID":"2020-020AE","EPOCH":"2026-06-06T15:38:11.150880","MEAN_MOTION":13.11416869,"ECCENTRICITY":0.000204,"INCLINATION":87.8909,"RA_OF_ASC_NODE":23.156,"ARG_OF_PERICENTER":72.5608,"MEAN_ANOMALY":287.5743,"EPHEMERIS_TYPE":0,"CLASSIFICATION_TYPE":"U","NORAD_CAT_ID":45452,"ELEMENT_SET_NO":999,"REV_AT_EPOCH":30129,"BSTAR":-0.0015689,"MEAN_MOTION_DOT":-5.43e-06,"MEAN_MOTION_DDOT":0.0},{"OBJECT_NAME":"ONEWEB-0050","OBJECT_ID":"2020-020AF","EPOCH":"2026-06-07T04:55:35.729760","MEAN_MOTION":14.90339991,"ECCENTRICITY":0.0004631,"INCLINATION":88.9301,"RA_OF_ASC_NODE":234.5652,"ARG_OF_PERICENTER":49.4146,"MEAN_ANOMALY":310.7485,"EPHEMERIS_TYPE":0,"CLASSIFICATION_TYPE":"U","NORAD_CAT_ID":45453,"ELEMENT_SET_NO":999,"REV_AT_EPOCH":33889,"BSTAR":0.00029147,"MEAN_MOTION_DOT":2.854e-05,"MEAN_MOTION_DDOT":0.0},{"OBJECT_NAME":"ONEWEB-0034","OBJECT_ID":"2020-020AG","EPOCH":"2026-06-07T09:00:22.959072","MEAN_MOTION":13.10935949,"ECCENTRICITY":0.0001825,"INCLINATION":87.8904,"RA_OF_ASC_NODE":23.0211,"ARG_OF_PERICENTER":83.3434,"MEAN_ANOMALY":276.7901,"EPHEMERIS_TYPE":0,"CLASSIFICATION_TYPE":"U","NORAD_CAT_ID":45454,"ELEMENT_SET_NO":999,"REV_AT_EPOCH":30130,"BSTAR":0.001271,"MEAN_MOTION_DOT":4.6e-06,"MEAN_MOTION_DDOT":0.0},{"OBJECT_NAME":"ONEWEB-0060","OBJECT_ID":"2020-020AH","EPOCH":"2026-06-07T07:56:11.132160","MEAN_MOTION":13.11415396,"ECCENTRICITY":0.0001765,"INCLINATION":87.8894,"RA_OF_ASC_NODE":23.0283,"ARG_OF_PERICENTER":50.7346,"MEAN_ANOMALY":309.3938,"EPHEMERIS_TYPE":0,"CLASSIFICATION_TYPE":"U","NORAD_CAT_ID":45455,"ELEMENT_SET_NO":999,"REV_AT_EPOCH":30125,"BSTAR":-0.00083443,"MEAN_MOTION_DOT":-2.83e-06,"MEAN_MOTION_DDOT":0.0},{"OBJECT_NAME":"ONEWEB-0086","OBJECT_ID":"2020-020AJ","EPOCH":"2026-06-07T09:15:24.484320","MEAN_MOTION":13.11454173,"ECCENTRICITY":0.000138,"INCLINATION":87.8907,"RA_OF_ASC_NODE":23.0121,"ARG_OF_PERICENTER":69.3355,"MEAN_ANOMALY":290.7921,"EPHEMERIS_TYPE":0,"CLASSIFICATION_TYPE":"U","NORAD_CAT_ID":45456,"ELEMENT_SET_NO":999,"REV_AT_EPOCH":30132,"BSTAR":0.0011657,"MEAN_MOTION_DOT":4.26e-06,"MEAN_MOTION_DDOT":0.0},{"OBJECT_NAME":"ONEWEB-0088","OBJECT_ID":"2020-020AK","EPOCH":"2026-06-07T08:43:48.662688","MEAN_MOTION":13.11419497,"ECCENTRICITY":0.0002229,"INCLINATION":87.8915,"RA_OF_ASC_NODE":22.9884,"ARG_OF_PERICENTER":84.0935,"MEAN_ANOMALY":276.0447,"EPHEMERIS_TYPE":0,"CLASSIFICATION_TYPE":"U","NORAD_CAT_ID":45457,"ELEMENT_SET_NO":999,"REV_AT_EPOCH":30125,"BSTAR":0.00012873000000000002,"MEAN_MOTION_DOT":5.8e-07,"MEAN_MOTION_DDOT":0.0},{"OBJECT_NAME":"ONEWEB-0102","OBJECT_ID":"2020-100A","EPOCH":"2026-06-07T07:11:05.720064","MEAN_MOTION":13.12443901,"ECCENTRICITY":0.0001468,"INCLINATION":87.8943,"RA_OF_ASC_NODE":352.6428,"ARG_OF_PERICENTER":91.0961,"MEAN_ANOMALY":269.0335,"EPHEMERIS_TYPE":0,"CLASSIFICATION_TYPE":"U","NORAD_CAT_ID":47258,"ELEMENT_SET_NO":999,"REV_AT_EPOCH":26343,"BSTAR":0.0010911,"MEAN_MOTION_DOT":4.05e-06,"MEAN_MOTION_DDOT":0.0},{"OBJECT_NAME":"ONEWEB-0109","OBJECT_ID":"2020-100B","EPOCH":"2026-06-07T05:33:30.697056","MEAN_MOTION":13.12442742,"ECCENTRICITY":0.0001726,"INCLINATION":87.8952,"RA_OF_ASC_NODE":352.6387,"ARG_OF_PERICENTER":93.5565,"MEAN_ANOMALY":266.5761,"EPHEMERIS_TYPE":0,"CLASSIFICATION_TYPE":"U","NORAD_CAT_ID":47259,"ELEMENT_SET_NO":999,"REV_AT_EPOCH":26325,"BSTAR":0.00064185,"MEAN_MOTION_DOT":2.44e-06,"MEAN_MOTION_DDOT":0.0},{"OBJECT_NAME":"ONEWEB-0110","OBJECT_ID":"2020-100C","EPOCH":"2026-06-07T06:12:31.978080","MEAN_MOTION":13.12443607,"ECCENTRICITY":0.0001592,"INCLINATION":87.895,"RA_OF_ASC_NODE":352.6176,"ARG_OF_PERICENTER":83.8661,"MEAN_ANOMALY":276.2648,"EPHEMERIS_TYPE":0,"CLASSIFICATION_TYPE":"U","NORAD_CAT_ID":47260,"ELEMENT_SET_NO":999,"REV_AT_EPOCH":26342,"BSTAR":-0.0011873,"MEAN_MOTION_DOT":-4.14e-06,"MEAN_MOTION_DDOT":0.0},{"OBJECT_NAME":"ONEWEB-0111","OBJECT_ID":"2020-100D","EPOCH":"2026-06-06T19:57:45.105984","MEAN_MOTION":13.12445042,"ECCENTRICITY":0.0001806,"INCLINATION":87.8949,"RA_OF_ASC_NODE":352.7213,"ARG_OF_PERICENTER":85.498,"MEAN_ANOMALY":274.6355,"EPHEMERIS_TYPE":0,"CLASSIFICATION_TYPE":"U","NORAD_CAT_ID":47261,"ELEMENT_SET_NO":999,"REV_AT_EPOCH":26320,"BSTAR":0.0010713,"MEAN_MOTION_DOT":3.98e-06,"MEAN_MOTION_DDOT":0.0},{"OBJECT_NAME":"ONEWEB-0114","OBJECT_ID":"2020-100E","EPOCH":"2026-06-07T05:50:34.823040","MEAN_MOTION":13.1244221,"ECCENTRICITY":0.0001924,"INCLINATION":87.8953,"RA_OF_ASC_NODE":352.6365,"ARG_OF_PERICENTER":96.1041,"MEAN_ANOMALY":264.0307,"EPHEMERIS_TYPE":0,"CLASSIFICATION_TYPE":"U","NORAD_CAT_ID":47262,"ELEMENT_SET_NO":999,"REV_AT_EPOCH":26321,"BSTAR":-0.00046066,"MEAN_MOTION_DOT":-1.53e-06,"MEAN_MOTION_DDOT":0.0},{"OBJECT_NAME":"ONEWEB-0117","OBJECT_ID":"2020-100F","EPOCH":"2026-06-07T05:38:23.447040","MEAN_MOTION":13.12441567,"ECCENTRICITY":0.000177,"INCLINATION":87.8951,"RA_OF_ASC_NODE":352.6297,"ARG_OF_PERICENTER":89.4464,"MEAN_ANOMALY":270.6867,"EPHEMERIS_TYPE":0,"CLASSIFICATION_TYPE":"U","NORAD_CAT_ID":47263,"ELEMENT_SET_NO":999,"REV_AT_EPOCH":26322,"BSTAR":0.00030278,"MEAN_MOTION_DOT":1.22e-06,"MEAN_MOTION_DDOT":0.0},{"OBJECT_NAME":"ONEWEB-0118","OBJECT_ID":"2020-100G","EPOCH":"2026-06-07T06:27:10.121760","MEAN_MOTION":13.12443247,"ECCENTRICITY":0.0002081,"INCLINATION":87.8947,"RA_OF_ASC_NODE":352.6254,"ARG_OF_PERICENTER":94.5622,"MEAN_ANOMALY":265.5744,"EPHEMERIS_TYPE":0,"CLASSIFICATION_TYPE":"U","NORAD_CAT_ID":47264,"ELEMENT_SET_NO":999,"REV_AT_EPOCH":26342,"BSTAR":-0.0008934800000000001,"MEAN_MOTION_DOT":-3.09e-06,"MEAN_MOTION_DDOT":0.0},{"OBJECT_NAME":"ONEWEB-0119","OBJECT_ID":"2020-100H","EPOCH":"2026-06-07T07:03:47.005056","MEAN_MOTION":13.12442923,"ECCENTRICITY":0.0001803,"INCLINATION":87.8938,"RA_OF_ASC_NODE":352.638,"ARG_OF_PERICENTER":89.6375,"MEAN_ANOMALY":270.496,"EPHEMERIS_TYPE":0,"CLASSIFICATION_TYPE":"U","NORAD_CAT_ID":47265,"ELEMENT_SET_NO":999,"REV_AT_EPOCH":26340,"BSTAR":0.0011113000000000002,"MEAN_MOTION_DOT":4.13e-06,"MEAN_MOTION_DDOT":0.0}]